[
    {
        "Altitude(m)": 571820.9652563825,
        "Argument of Periapsis(deg)": 0.033114955553567506,
        "Eccentricity": 0.0,
        "Inclination(deg)": 53.0,
        "Latitude(deg)": -53.08935967358507,
        "Longitude(deg)": -175.16317126245445,
        "Mean Anomaly(deg)": 272.27626433788794,
        "RAAN(deg)": 14.95071684264008,
        "Satellite Name": "Starlink Shell 1 79",
        "Satellite Number": 79,
        "Semi-Major Axis(m)": 6931778.249405717,
        "Time(s)": 950
    },
    {
        "Altitude(m)": 571806.3488291941,
        "Argument of Periapsis(deg)": 0.03346353403307874,
        "Eccentricity": 0.0,
        "Inclination(deg)": 53.0,
        "Latitude(deg)": -53.051577465961266,
        "Longitude(deg)": -174.16954158727077,
        "Mean Anomaly(deg)": 272.90309554144466,
        "RAAN(deg)": 14.95019807256261,
        "Satellite Name": "Starlink Shell 1 79",
        "Satellite Number": 79,
        "Semi-Major Axis(m)": 6931778.249405717,
        "Time(s)": 960
    },
    {
        "Altitude(m)": 571788.2665329693,
        "Argument of Periapsis(deg)": 0.03381211251258998,
        "Eccentricity": 0.0,
        "Inclination(deg)": 53.0,
        "Latitude(deg)": -53.00481421663781,
        "Longitude(deg)": -173.17793176140478,
        "Mean Anomaly(deg)": 273.5299267450014,
        "RAAN(deg)": 14.949679302485137,
        "Satellite Name": "Starlink Shell 1 79",
        "Satellite Number": 79,
        "Semi-Major Axis(m)": 6931778.249405717,
        "Time(s)": 970
    },
    {
        "Altitude(m)": 571766.7255638121,
        "Argument of Periapsis(deg)": 0.034160690992101214,
        "Eccentricity": 0.0,
        "Inclination(deg)": 53.0,
        "Latitude(deg)": -52.949104180292814,
        "Longitude(deg)": -172.18876081937566,
        "Mean Anomaly(deg)": 274.1567579485581,
        "RAAN(deg)": 14.949160532407664,
        "Satellite Name": "Starlink Shell 1 79",
        "Satellite Number": 79,
        "Semi-Major Axis(m)": 6931778.249405717,
        "Time(s)": 980
    },
    {
        "Altitude(m)": 571741.7344978405,
        "Argument of Periapsis(deg)": 0.034509269471612446,
        "Eccentricity": 0.0,
        "Inclination(deg)": 53.0,
        "Latitude(deg)": -52.8844879415239,
        "Longitude(deg)": -171.20244016206954,
        "Mean Anomaly(deg)": 274.7835891521148,
        "RAAN(deg)": 14.948641762330194,
        "Satellite Name": "Starlink Shell 1 79",
        "Satellite Number": 79,
        "Semi-Major Axis(m)": 6931778.249405717,
        "Time(s)": 990
    }
]